GORIZONT 1 [-]          
1 11158U 78118A   23001.94697984 -.00000172  00000+0  00000+0 0  9992
2 11158  11.0855 197.4855 3429386 292.1652  35.1395  1.00303666110282
GORIZONT 2 [-]          
1 11440U 79062A   23002.88963538 -.00000030  00000+0  00000+0 0  9993
2 11440   8.8197 299.5403 0003442 309.7156 243.2591  1.00304986125365
GORIZONT 3 [-]          
1 11648U 79105A   23002.82208251 -.00000231  00000+0  00000+0 0  9992
2 11648   8.9824 301.0069 0012497 219.6671 328.2890  1.00338554109839
GORIZONT 4 [-]          
1 11841U 80049A   23003.49421178  .00000027  00000+0  00000+0 0  9997
2 11841  10.1407 306.9082 0001161 340.6284 217.7016  0.98628606221110
GORIZONT 5 [-]          
1 13092U 82020A   23003.42439262  .00000031  00000+0  00000+0 0  9999
2 13092  11.1488 312.2471 0033682 216.8759 320.4947  0.98530697109152
GORIZONT 6 [-]          
1 13624U 82103A   23002.55768890  .00000140  00000+0  00000+0 0  9998
2 13624  10.0781 312.3193 0000743 282.1095 272.1529  1.00332843108290
GORIZONT 7 [-]          
1 14160U 83066A   23002.82548194 -.00000083  00000+0  00000+0 0  9993
2 14160  11.7659 321.7862 0009971 321.7568 223.7274  0.98347413142340
GORIZONT 8 [-]          
1 14532U 83118A   23002.22226744 -.00000167  00000+0  00000+0 0  9995
2 14532  11.9481 323.6643 0029737 153.1541  24.6267  0.98270799108104
GORIZONT 9 [-]          
1 14940U 84041A   23002.88850223  .00000027  00000+0  00000+0 0  9995
2 14940  11.1358 321.6632 0004389 218.5048 305.7312  1.00229307109290
GORIZONT 10 [-]         
1 15144U 84078A   23002.62663642  .00000101  00000+0  00000+0 0  9994
2 15144  11.2360 322.6911 0000232 131.5931  63.1353  1.00261868141924
GORIZONT 11 [-]         
1 15484U 85007A   23002.75790691 -.00000332  00000+0  00000+0 0  9990
2 15484  11.4233 324.6848 0002752 154.9939  23.8853  1.00333055139988
GORIZONT 12 [-]         
1 16769U 86044A   23002.52561219  .00000129  00000+0  00000+0 0  9999
2 16769  12.0659 330.0940 0001390 255.3286 108.3448  1.00243168134626
GORIZONT 13 [-]         
1 17083U 86090A   23002.82661509 -.00000111  00000+0  00000+0 0  9998
2 17083  13.9678 337.3224 0013878 341.8540 193.8759  0.96726041106465
GORIZONT 14 [-]         
1 17969U 87040A   23002.85825601 -.00000055  00000+0  00000+0 0  9992
2 17969  12.8744 328.6676 0030792 177.9306 176.9529  0.97657938107531
GORIZONT 15 [-]         
1 19017U 88028A   23002.82870705 -.00000138  00000+0  00000+0 0  9999
2 19017  14.2710 340.1169 0036509 161.0340  23.2647  0.97828974107160
GORIZONT 16 [-]         
1 19397U 88071A   23002.76130633 -.00000295  00000+0  00000+0 0  9994
2 19397  13.1207 338.7922 0013742  63.5100 119.2233  0.99988057125623
GORIZONT 17 [-]         
1 19765U 89004A   23003.33017851 -.00000222  00000+0  00000+0 0  9990
2 19765  13.6814 342.1573 0022568 136.0643  52.9259  0.99066901123079
GORIZONT 18 [-]         
1 20107U 89052A   23002.83001453 -.00000322  00000+0  00000+0 0  9991
2 20107  13.7324 343.4145 0033943 321.2192 227.2093  0.99403101121879
GORIZONT 19 [-]         
1 20263U 89081A   23003.39571535 -.00000250  00000+0  00000+0 0  9991
2 20263  13.4591 342.5826 0003721 214.5217 137.4362  1.00349113121858
GORIZONT 20 [-]         
1 20659U 90054A   23002.46259190 -.00000204  00000+0  00000+0 0  9998
2 20659  13.9096 345.4047 0006639 170.8013 198.6025  1.00229950119047
GORIZONT 21 [-]         
1 20923U 90094A   23002.79471271 -.00000290  00000+0  00000+0 0  9993
2 20923  13.9268 346.1692 0004415 209.5411 145.4575  1.00341349117795
GORIZONT 22 [-]         
1 20953U 90102A   23002.83053752 -.00000339  00000+0  00000+0 0  9995
2 20953  13.8869 346.5403 0002548  26.0755 161.6479  1.00230467117753
GORIZONT 23 [-]         
1 21533U 91046A   23002.74146536  .00000046  00000+0  00000+0 0  9995
2 21533  14.6697 350.7120 0004050 313.8376 125.0986  0.98906332 34218
GORIZONT 24 [-]         
1 21759U 91074A   23003.43380644 -.00000066  00000+0  00000+0 0  9996
2 21759  14.8341 352.6258 0017933 228.3802 319.0844  0.98442466112620
GORIZONT 25 [-]         
1 21922U 92017A   23002.69645559 -.00000050  00000+0  00000+0 0  9995
2 21922  14.3745 351.9390 0028560  85.2300  95.3066  0.99858814112343
GORIZONT 26 [-]         
1 22041U 92043A   23002.89878771 -.00000239  00000+0  00000+0 0  9992
2 22041  14.5553 353.9589 0031119 238.8441 309.3644  0.99243162110974
GORIZONT 27 [-]         
1 22245U 92082A   23002.66516334  .00000099  00000+0  00000+0 0  9993
2 22245  14.4713 353.5283 0011911  11.4469 359.9615  1.00181860114485
GORIZONT 28 [-]         
1 22880U 93069A   23003.41156649 -.00000247  00000+0  00000+0 0  9993
2 22880  14.6314 357.4019 0033881 136.0191  53.7682  0.99652014106570
GORIZONT 29 [-]         
1 22907U 93072A   23002.86514203 -.00000303  00000+0  00000+0 0  9992
2 22907  14.5408 356.8514 0009938 346.9145  16.8742  1.00140208106570
GORIZONT 30 [-]         
1 23108U 94030A   23002.83193216 -.00000299  00000+0  00000+0 0  9999
2 23108  14.5582 357.7507 0001469 191.1586 353.0793  1.00243550104843
GORIZONT 31 [-]         
1 23775U 96005A   23003.03293463  .00000018  00000+0  00000+0 0  9999
2 23775  14.5050   3.9961 0018627 204.2672 334.6884  0.99881185 98446
GORIZONT 32 [-]         
1 23880U 96034A   23002.76749507 -.00000006  00000+0  00000+0 0  9990
2 23880  14.4579   4.5047 0008141 358.3886 192.5258  1.00213318 97397
GORIZONT 33 [-]         
1 26372U 00029A   23002.80037843 -.00000160  00000+0  00000+0 0  9997
2 26372  13.2322  15.7730 0002276  99.7355 256.4917  1.00293633 82778
